{"type": "FeatureCollection", "features": [ {"type": "Feature", "properties": {"norad_id": 41335, "name": "SENTINEL-3A", "group": "resource", "lat": -52.34433317683531, "lon": 58.86298313981029, "alt_km": 810.1298306216368, "timestamp": "2025-12-08T10:52:02.606717+00:00", "meta": {"OBJECT_NAME": "SENTINEL-3A", "OBJECT_ID": "2016-011A", "EPOCH": "2025-12-07T23:20:04.493472", "MEAN_MOTION": 14.2674369, "ECCENTRICITY": 9.645e-05, "INCLINATION": 98.6213, "RA_OF_ASC_NODE": 47.051, "ARG_OF_PERICENTER": 92.5472, "MEAN_ANOMALY": 267.5819, "EPHEMERIS_TYPE": 0, "CLASSIFICATION_TYPE": "U", "NORAD_CAT_ID": 41335, "ELEMENT_SET_NO": 999, "REV_AT_EPOCH": 51079, "BSTAR": 0.00012209576, "MEAN_MOTION_DOT": 2.52e-06, "MEAN_MOTION_DDOT": 0}, "tle": {"line1": "1 41335U 16011A   25341.97227423  .00000252  00000+0  12210-3 0  9993", "line2": "2 41335  98.6213  47.0510 0000964  92.5472 267.5819 14.26743690510794"}}, "geometry": {"type": "Point", "coordinates": [58.86298313981029, -52.34433317683531]}}, {"type": "Feature", "properties": {"norad_id": 41556, "name": "ZIYUAN 3-2 (ZY 3-2)", "group": "resource", "lat": 38.94319265446787, "lon": 50.65751294796137, "alt_km": 504.5723445329322, "timestamp": "2025-12-08T10:52:02.606728+00:00", "meta": {"OBJECT_NAME": "ZIYUAN 3-2 (ZY 3-2)", "OBJECT_ID": "2016-033A", "EPOCH": "2025-12-07T22:04:00.784128", "MEAN_MOTION": 15.21396878, "ECCENTRICITY": 0.00123871, "INCLINATION": 97.4046, "RA_OF_ASC_NODE": 56.1658, "ARG_OF_PERICENTER": 267.9218, "MEAN_ANOMALY": 92.06, "EPHEMERIS_TYPE": 0, "CLASSIFICATION_TYPE": "U", "NORAD_CAT_ID": 41556, "ELEMENT_SET_NO": 999, "REV_AT_EPOCH": 52890, "BSTAR": 0.00040869245, "MEAN_MOTION_DOT": 9.121e-05, "MEAN_MOTION_DDOT": 0}, "tle": {"line1": "1 41556U 16033A   25341.91945352  .00009121  00000+0  40869-3 0  9999", "line2": "2 41556  97.4046  56.1658 0012387 267.9218  92.0600 15.21396878528901"}}, "geometry": {"type": "Point", "coordinates": [50.65751294796137, 38.94319265446787]}}, {"type": "Feature", "properties": {"norad_id": 41599, "name": "CARTOSAT-2C", "group": "resource", "lat": 16.611816033140034, "lon": 37.501686931555064, "alt_km": 505.1986636323545, "timestamp": "2025-12-08T10:52:02.606738+00:00", "meta": {"OBJECT_NAME": "CARTOSAT-2C", "OBJECT_ID": "2016-040A", "EPOCH": "2025-12-07T22:08:52.201824", "MEAN_MOTION": 15.19222929, "ECCENTRICITY": 0.00109438, "INCLINATION": 97.4767, "RA_OF_ASC_NODE": 39.2226, "ARG_OF_PERICENTER": 79.7781, "MEAN_ANOMALY": 280.4687, "EPHEMERIS_TYPE": 0, "CLASSIFICATION_TYPE": "U", "NORAD_CAT_ID": 41599, "ELEMENT_SET_NO": 999, "REV_AT_EPOCH": 52467, "BSTAR": 0.00033971671, "MEAN_MOTION_DOT": 7.098e-05, "MEAN_MOTION_DDOT": 0}, "tle": {"line1": "1 41599U 16040A   25341.92282641  .00007098  00000+0  33972-3 0  9998", "line2": "2 41599  97.4767  39.2226 0010943  79.7781 280.4687 15.19222929524671"}}, "geometry": {"type": "Point", "coordinates": [37.501686931555064, 16.611816033140034]}}, {"type": "Feature", "properties": {"norad_id": 41601, "name": "SKYSAT-C1", "group": "resource", "lat": -47.53391462898814, "lon": -167.98736106041795, "alt_km": 477.17367924825976, "timestamp": "2025-12-08T10:52:02.606748+00:00", "meta": {"OBJECT_NAME": "SKYSAT-C1", "OBJECT_ID": "2016-040C", "EPOCH": "2025-12-07T19:46:18.144768", "MEAN_MOTION": 15.32459821, "ECCENTRICITY": 0.0002907, "INCLINATION": 96.9826, "RA_OF_ASC_NODE": 19.1149, "ARG_OF_PERICENTER": 29.1433, "MEAN_ANOMALY": 330.9972, "EPHEMERIS_TYPE": 0, "CLASSIFICATION_TYPE": "U", "NORAD_CAT_ID": 41601, "ELEMENT_SET_NO": 999, "REV_AT_EPOCH": 52852, "BSTAR": 0.00045923842, "MEAN_MOTION_DOT": 0.00014334, "MEAN_MOTION_DDOT": 0}, "tle": {"line1": "1 41601U 16040C   25341.82382112  .00014334  00000+0  45924-3 0  9996", "line2": "2 41601  96.9826  19.1149 0002907  29.1433 330.9972 15.32459821528524"}}, "geometry": {"type": "Point", "coordinates": [-167.98736106041795, -47.53391462898814]}}, {"type": "Feature", "properties": {"norad_id": 41603, "name": "LAPAN-A3", "group": "resource", "lat": 26.812843923621752, "lon": -23.468890475254018, "alt_km": 464.82563752218266, "timestamp": "2025-12-08T10:52:02.606758+00:00", "meta": {"OBJECT_NAME": "LAPAN-A3", "OBJECT_ID": "2016-040E", "EPOCH": "2025-12-07T23:46:23.278944", "MEAN_MOTION": 15.31493766, "ECCENTRICITY": 0.00102412, "INCLINATION": 97.1427, "RA_OF_ASC_NODE": 339.7195, "ARG_OF_PERICENTER": 351.7157, "MEAN_ANOMALY": 8.3915, "EPHEMERIS_TYPE": 0, "CLASSIFICATION_TYPE": "U", "NORAD_CAT_ID": 41603, "ELEMENT_SET_NO": 999, "REV_AT_EPOCH": 52553, "BSTAR": 0.00018496201, "MEAN_MOTION_DOT": 5.559e-05, "MEAN_MOTION_DDOT": 0}, "tle": {"line1": "1 41603U 16040E   25341.99054721  .00005559  00000+0  18496-3 0  9991", "line2": "2 41603  97.1427 339.7195 0010241 351.7157   8.3915 15.31493766525531"}}, "geometry": {"type": "Point", "coordinates": [-23.468890475254018, 26.812843923621752]}}, {"type": "Feature", "properties": {"norad_id": 41604, "name": "BIROS", "group": "resource", "lat": 47.41023792490939, "lon": 5.961179038710769, "alt_km": 304.7431628515833, "timestamp": "2025-12-08T10:52:02.606769+00:00", "meta": {"OBJECT_NAME": "BIROS", "OBJECT_ID": "2016-040F", "EPOCH": "2025-12-07T19:32:26.245824", "MEAN_MOTION": 15.87659919, "ECCENTRICITY": 0.00031473, "INCLINATION": 97.0682, "RA_OF_ASC_NODE": 13.0567, "ARG_OF_PERICENTER": 158.7649, "MEAN_ANOMALY": 201.3755, "EPHEMERIS_TYPE": 0, "CLASSIFICATION_TYPE": "U", "NORAD_CAT_ID": 41604, "ELEMENT_SET_NO": 999, "REV_AT_EPOCH": 52794, "BSTAR": 0.00076964954, "MEAN_MOTION_DOT": 0.00208473, "MEAN_MOTION_DDOT": 0}, "tle": {"line1": "1 41604U 16040F   25341.81419266  .00208473  00000+0  76965-3 0  9997", "line2": "2 41604  97.0682  13.0567 0003147 158.7649 201.3755 15.87659919527946"}}, "geometry": {"type": "Point", "coordinates": [5.961179038710769, 47.41023792490939]}}, {"type": "Feature", "properties": {"norad_id": 41727, "name": "GAOFEN-3", "group": "resource", "lat": 76.73697650104326, "lon": -153.05221105311628, "alt_km": 743.049151181689, "timestamp": "2025-12-08T10:52:02.606779+00:00", "meta": {"OBJECT_NAME": "GAOFEN-3", "OBJECT_ID": "2016-049A", "EPOCH": "2025-12-07T22:44:55.428864", "MEAN_MOTION": 14.42211904, "ECCENTRICITY": 0.00014906, "INCLINATION": 98.404, "RA_OF_ASC_NODE": 347.6073, "ARG_OF_PERICENTER": 69.7719, "MEAN_ANOMALY": 290.3631, "EPHEMERIS_TYPE": 0, "CLASSIFICATION_TYPE": "U", "NORAD_CAT_ID": 41727, "ELEMENT_SET_NO": 999, "REV_AT_EPOCH": 49108, "BSTAR": 5.5627647e-05, "MEAN_MOTION_DOT": 1.4e-06, "MEAN_MOTION_DDOT": 0}, "tle": {"line1": "1 41727U 16049A   25341.94786376  .00000140  00000+0  55628-4 0  9990", "line2": "2 41727  98.4040 347.6073 0001490  69.7719 290.3631 14.42211904491085"}}, "geometry": {"type": "Point", "coordinates": [-153.05221105311628, 76.73697650104326]}}, {"type": "Feature", "properties": {"norad_id": 41771, "name": "SKYSAT-C4", "group": "resource", "lat": 14.607654472568356, "lon": 6.030884405697482, "alt_km": 441.34175321058046, "timestamp": "2025-12-08T10:52:02.606789+00:00", "meta": {"OBJECT_NAME": "SKYSAT-C4", "OBJECT_ID": "2016-058B", "EPOCH": "2025-12-07T19:13:47.557632", "MEAN_MOTION": 15.42043286, "ECCENTRICITY": 0.00010794, "INCLINATION": 96.9372, "RA_OF_ASC_NODE": 7.2296, "ARG_OF_PERICENTER": 131.8153, "MEAN_ANOMALY": 228.3187, "EPHEMERIS_TYPE": 0, "CLASSIFICATION_TYPE": "U", "NORAD_CAT_ID": 41771, "ELEMENT_SET_NO": 999, "REV_AT_EPOCH": 51591, "BSTAR": 0.00055146651, "MEAN_MOTION_DOT": 0.000235, "MEAN_MOTION_DDOT": 0}, "tle": {"line1": "1 41771U 16058B   25341.80124488  .00023500  00000+0  55147-3 0  9994", "line2": "2 41771  96.9372   7.2296 0001079 131.8153 228.3187 15.42043286515910"}}, "geometry": {"type": "Point", "coordinates": [6.030884405697482, 14.607654472568356]}}, {"type": "Feature", "properties": {"norad_id": 41772, "name": "SKYSAT-C5", "group": "resource", "lat": 36.16180839423587, "lon": 21.166747287465864, "alt_km": 456.53138618639423, "timestamp": "2025-12-08T10:52:02.606800+00:00", "meta": {"OBJECT_NAME": "SKYSAT-C5", "OBJECT_ID": "2016-058C", "EPOCH": "2025-12-07T20:37:59.013120", "MEAN_MOTION": 15.35526618, "ECCENTRICITY": 0.0002796, "INCLINATION": 97.0758, "RA_OF_ASC_NODE": 25.8058, "ARG_OF_PERICENTER": 117.7245, "MEAN_ANOMALY": 242.4283, "EPHEMERIS_TYPE": 0, "CLASSIFICATION_TYPE": "U", "NORAD_CAT_ID": 41772, "ELEMENT_SET_NO": 999, "REV_AT_EPOCH": 51441, "BSTAR": 0.00039590067, "MEAN_MOTION_DOT": 0.00013603, "MEAN_MOTION_DDOT": 0}, "tle": {"line1": "1 41772U 16058C   25341.85971080  .00013603  00000+0  39590-3 0  9995", "line2": "2 41772  97.0758  25.8058 0002796 117.7245 242.4283 15.35526618514410"}}, "geometry": {"type": "Point", "coordinates": [21.166747287465864, 36.16180839423587]}}, {"type": "Feature", "properties": {"norad_id": 41773, "name": "SKYSAT-C2", "group": "resource", "lat": 15.684259256847646, "lon": 5.174111623864464, "alt_km": 452.6328947328366, "timestamp": "2025-12-08T10:52:02.606810+00:00", "meta": {"OBJECT_NAME": "SKYSAT-C2", "OBJECT_ID": "2016-058D", "EPOCH": "2025-12-07T19:10:30.131904", "MEAN_MOTION": 15.37107164, "ECCENTRICITY": 0.00047177, "INCLINATION": 97.036, "RA_OF_ASC_NODE": 6.5355, "ARG_OF_PERICENTER": 46.8729, "MEAN_ANOMALY": 313.291, "EPHEMERIS_TYPE": 0, "CLASSIFICATION_TYPE": "U", "NORAD_CAT_ID": 41773, "ELEMENT_SET_NO": 999, "REV_AT_EPOCH": 51560, "BSTAR": 0.00048806877, "MEAN_MOTION_DOT": 0.00017675, "MEAN_MOTION_DDOT": 0}, "tle": {"line1": "1 41773U 16058D   25341.79895986  .00017675  00000+0  48807-3 0  9993", "line2": "2 41773  97.0360   6.5355 0004717  46.8729 313.2910 15.37107164515609"}}, "geometry": {"type": "Point", "coordinates": [5.174111623864464, 15.684259256847646]}}]}